{
  "type": "FeatureCollection",
  "features": [
    {
      "type": "Feature",
      "properties": {
        "norad_id": 40069,
        "name": "METEOR-M 2",
        "group": "weather",
        "lat": 6.7118930661236,
        "lon": -34.64242256654596,
        "alt_km": 826.1667018570897,
        "timestamp": "2025-12-14T20:40:31.410066+00:00",
        "meta_object_name": "METEOR-M 2",
        "meta_object_id": "2014-037A",
        "meta_epoch": "2025-12-14T08:49:02.510688",
        "meta_mean_motion": 14.2138736,
        "meta_eccentricity": 0.00050521,
        "meta_inclination": 98.4903,
        "meta_ra_of_asc_node": 325.8897,
        "meta_arg_of_pericenter": 204.3738,
        "meta_mean_anomaly": 155.7201,
        "meta_ephemeris_type": 0,
        "meta_classification_type": "U",
        "meta_norad_cat_id": 40069,
        "meta_element_set_no": 999,
        "meta_rev_at_epoch": 59306,
        "meta_bstar": 0.00014038926,
        "meta_mean_motion_dot": 2.65e-06,
        "meta_mean_motion_ddot": 0,
        "tle_line1": "1 40069U 14037A   25348.36739017  .00000265  00000+0  14039-3 0  9994",
        "tle_line2": "2 40069  98.4903 325.8897 0005052 204.3738 155.7201 14.21387360593064"
      },
      "geometry": {
        "type": "Point",
        "coordinates": [
          -34.64242256654596,
          6.7118930661236
        ]
      }
    },
    {
      "type": "Feature",
      "properties": {
        "norad_id": 40267,
        "name": "HIMAWARI-8",
        "group": "weather",
        "lat": -0.007782752905122958,
        "lon": 174.54562788948877,
        "alt_km": 35786.90026425956,
        "timestamp": "2025-12-14T20:40:31.410078+00:00",
        "meta_object_name": "HIMAWARI-8",
        "meta_object_id": "2014-060A",
        "meta_epoch": "2025-12-14T07:14:25.465632",
        "meta_mean_motion": 1.00273368,
        "meta_eccentricity": 9.527e-05,
        "meta_inclination": 0.0215,
        "meta_ra_of_asc_node": 215.228,
        "meta_arg_of_pericenter": 66.8436,
        "meta_mean_anomaly": 50.415,
        "meta_ephemeris_type": 0,
        "meta_classification_type": "U",
        "meta_norad_cat_id": 40267,
        "meta_element_set_no": 999,
        "meta_rev_at_epoch": 4090,
        "meta_bstar": 0,
        "meta_mean_motion_dot": -2.57e-06,
        "meta_mean_motion_ddot": 0,
        "tle_line1": "1 40267U 14060A   25348.30168363 -.00000257  00000+0  00000+0 0  9995",
        "tle_line2": "2 40267   0.0215 215.2280 0000952  66.8436  50.4150  1.00273368 40906"
      },
      "geometry": {
        "type": "Point",
        "coordinates": [
          174.54562788948877,
          -0.007782752905122958
        ]
      }
    },
    {
      "type": "Feature",
      "properties": {
        "norad_id": 40367,
        "name": "FENGYUN 2G",
        "group": "weather",
        "lat": 4.4104817302700186,
        "lon": 133.241526420843,
        "alt_km": 35797.96995081025,
        "timestamp": "2025-12-14T20:40:31.410090+00:00",
        "meta_object_name": "FENGYUN 2G",
        "meta_object_id": "2014-090A",
        "meta_epoch": "2025-12-13T19:03:33.526656",
        "meta_mean_motion": 1.00263852,
        "meta_eccentricity": 0.00030684,
        "meta_inclination": 5.1713,
        "meta_ra_of_asc_node": 75.0867,
        "meta_arg_of_pericenter": 199.4917,
        "meta_mean_anomaly": 193.5321,
        "meta_ephemeris_type": 0,
        "meta_classification_type": "U",
        "meta_norad_cat_id": 40367,
        "meta_element_set_no": 999,
        "meta_rev_at_epoch": 4014,
        "meta_bstar": 0,
        "meta_mean_motion_dot": -2.86e-06,
        "meta_mean_motion_ddot": 0,
        "tle_line1": "1 40367U 14090A   25347.79413804 -.00000286  00000+0  00000+0 0  9996",
        "tle_line2": "2 40367   5.1713  75.0867 0003068 199.4917 193.5321  1.00263852 40149"
      },
      "geometry": {
        "type": "Point",
        "coordinates": [
          133.241526420843,
          4.4104817302700186
        ]
      }
    },
    {
      "type": "Feature",
      "properties": {
        "norad_id": 40732,
        "name": "METEOSAT-11 (MSG-4)",
        "group": "weather",
        "lat": -1.3021407292604696,
        "lon": 43.18081382348557,
        "alt_km": 35790.873743251905,
        "timestamp": "2025-12-14T20:40:31.410102+00:00",
        "meta_object_name": "METEOSAT-11 (MSG-4)",
        "meta_object_id": "2015-034A",
        "meta_epoch": "2025-12-14T04:54:08.901216",
        "meta_mean_motion": 1.00267947,
        "meta_eccentricity": 9.241e-05,
        "meta_inclination": 2.7392,
        "meta_ra_of_asc_node": 71.9971,
        "meta_arg_of_pericenter": 128.5405,
        "meta_mean_anomaly": 325.3944,
        "meta_ephemeris_type": 0,
        "meta_classification_type": "U",
        "meta_norad_cat_id": 40732,
        "meta_element_set_no": 999,
        "meta_rev_at_epoch": 536,
        "meta_bstar": 0,
        "meta_mean_motion_dot": 7.8e-07,
        "meta_mean_motion_ddot": 0,
        "tle_line1": "1 40732U 15034A   25348.20426969  .00000078  00000+0  00000+0 0  9992",
        "tle_line2": "2 40732   2.7392  71.9971 0000924 128.5405 325.3944  1.00267947  5365"
      },
      "geometry": {
        "type": "Point",
        "coordinates": [
          43.18081382348557,
          -1.3021407292604696
        ]
      }
    },
    {
      "type": "Feature",
      "properties": {
        "norad_id": 41105,
        "name": "ELEKTRO-L 2",
        "group": "weather",
        "lat": -4.984842058134638,
        "lon": 19.613522001631612,
        "alt_km": 35789.23436634719,
        "timestamp": "2025-12-14T20:40:31.410115+00:00",
        "meta_object_name": "ELEKTRO-L 2",
        "meta_object_id": "2015-074A",
        "meta_epoch": "2025-12-14T01:21:52.095744",
        "meta_mean_motion": 1.0027252,
        "meta_eccentricity": 0.00038925,
        "meta_inclination": 6.2293,
        "meta_ra_of_asc_node": 72.8137,
        "meta_arg_of_pericenter": 207.3981,
        "meta_mean_anomaly": 168.7392,
        "meta_ephemeris_type": 0,
        "meta_classification_type": "U",
        "meta_norad_cat_id": 41105,
        "meta_element_set_no": 999,
        "meta_rev_at_epoch": 3665,
        "meta_bstar": 0,
        "meta_mean_motion_dot": -1.03e-06,
        "meta_mean_motion_ddot": 0,
        "tle_line1": "1 41105U 15074A   25348.05685296 -.00000103  00000+0  00000+0 0  9994",
        "tle_line2": "2 41105   6.2293  72.8137 0003892 207.3981 168.7392  1.00272520 36650"
      },
      "geometry": {
        "type": "Point",
        "coordinates": [
          19.613522001631612,
          -4.984842058134638
        ]
      }
    },
    {
      "type": "Feature",
      "properties": {
        "norad_id": 41752,
        "name": "INSAT-3DR",
        "group": "weather",
        "lat": 0.051102535705245096,
        "lon": 107.83969630319761,
        "alt_km": 35844.009603182014,
        "timestamp": "2025-12-14T20:40:31.410127+00:00",
        "meta_object_name": "INSAT-3DR",
        "meta_object_id": "2016-054A",
        "meta_epoch": "2025-12-14T00:04:29.508384",
        "meta_mean_motion": 1.0027137,
        "meta_eccentricity": 0.00142858,
        "meta_inclination": 0.095,
        "meta_ra_of_asc_node": 86.7631,
        "meta_arg_of_pericenter": 184.1849,
        "meta_mean_anomaly": 247.0969,
        "meta_ephemeris_type": 0,
        "meta_classification_type": "U",
        "meta_norad_cat_id": 41752,
        "meta_element_set_no": 999,
        "meta_rev_at_epoch": 3396,
        "meta_bstar": 0,
        "meta_mean_motion_dot": -6e-07,
        "meta_mean_motion_ddot": 0,
        "tle_line1": "1 41752U 16054A   25348.00311931 -.00000060  00000+0  00000+0 0  9990",
        "tle_line2": "2 41752   0.0950  86.7631 0014285 184.1849 247.0969  1.00271370 33960"
      },
      "geometry": {
        "type": "Point",
        "coordinates": [
          107.83969630319761,
          0.051102535705245096
        ]
      }
    },
    {
      "type": "Feature",
      "properties": {
        "norad_id": 41836,
        "name": "HIMAWARI-9",
        "group": "weather",
        "lat": 0.02467352396284939,
        "lon": 174.64016323255063,
        "alt_km": 35787.78053273845,
        "timestamp": "2025-12-14T20:40:31.410139+00:00",
        "meta_object_name": "HIMAWARI-9",
        "meta_object_id": "2016-064A",
        "meta_epoch": "2025-12-14T07:14:25.465632",
        "meta_mean_motion": 1.00268556,
        "meta_eccentricity": 0.00010406,
        "meta_inclination": 0.0402,
        "meta_ra_of_asc_node": 95.6919,
        "meta_arg_of_pericenter": 178.7045,
        "meta_mean_anomaly": 58.1957,
        "meta_ephemeris_type": 0,
        "meta_classification_type": "U",
        "meta_norad_cat_id": 41836,
        "meta_element_set_no": 999,
        "meta_rev_at_epoch": 3335,
        "meta_bstar": 0,
        "meta_mean_motion_dot": -2.57e-06,
        "meta_mean_motion_ddot": 0,
        "tle_line1": "1 41836U 16064A   25348.30168363 -.00000257  00000+0  00000+0 0  9994",
        "tle_line2": "2 41836   0.0402  95.6919 0001040 178.7045  58.1957  1.00268556 33358"
      },
      "geometry": {
        "type": "Point",
        "coordinates": [
          174.64016323255063,
          0.02467352396284939
        ]
      }
    }
  ]
}